format  = 'OEF2.0'       ! file format
rectype = 'ML'           ! record type (1L/ML)
refsys  = ECLM J2000     ! default reference system
END_OF_HEADER
1272
! Equinoctial elements from JPL Horizons / Occult4
 EQU   2.7879600000000000E+00  -8.3776787172481604E-02   1.2568831461618346E-01   -4.6096887321507560E-02    5.7464495258085196E-02  1.0749750000000000E+02
 MJD     61052.000000000 TDT
 MAG  12.8  0.150
! Non-grav parameters
 LSP   0  0    6
 COV   1.0000000000000001E-18   0.0000000000000000E+00   1.0000000000000001E-18
 COV   0.0000000000000000E+00   0.0000000000000000E+00   1.0000000000000001E-18
 COV   0.0000000000000000E+00   0.0000000000000000E+00   0.0000000000000000E+00
 COV   1.0000000000000001E-18   0.0000000000000000E+00   0.0000000000000000E+00
 COV   0.0000000000000000E+00   0.0000000000000000E+00   1.0000000000000001E-18
 COV   0.0000000000000000E+00   0.0000000000000000E+00   0.0000000000000000E+00
 COV   0.0000000000000000E+00   0.0000000000000000E+00   1.0000000000000001E-18
